{
    "links": {
        "self": "http://www.neowsapp.com/rest/v1/neo/3557956?api_key=iIulBulltgU6a56xZRHN4H3l9WmuAYTsLGpBGhQ2"
    },
    "id": "3557956",
    "neo_reference_id": "3557956",
    "name": "(2011 DE5)",
    "designation": "2011 DE5",
    "nasa_jpl_url": "http://ssd.jpl.nasa.gov/sbdb.cgi?sstr=3557956",
    "absolute_magnitude_h": 26.4,
    "estimated_diameter": {
        "kilometers": {
            "estimated_diameter_min": 0.0139493823,
            "estimated_diameter_max": 0.0311917671
        },
        "meters": {
            "estimated_diameter_min": 13.9493822934,
            "estimated_diameter_max": 31.1917670523
        },
        "miles": {
            "estimated_diameter_min": 0.0086677416,
            "estimated_diameter_max": 0.0193816595
        },
        "feet": {
            "estimated_diameter_min": 45.7656914036,
            "estimated_diameter_max": 102.3351970157
        }
    },
    "is_potentially_hazardous_asteroid": false,
    "close_approach_data": [
        {
            "close_approach_date": "2011-03-01",
            "close_approach_date_full": "2011-Mar-01 17:44",
            "epoch_date_close_approach": 1299001440000,
            "relative_velocity": {
                "kilometers_per_second": "15.0741938648",
                "kilometers_per_hour": "54267.0979134434",
                "miles_per_hour": "33719.4642562727"
            },
            "miss_distance": {
                "astronomical": "0.0126026455",
                "lunar": "4.9024290995",
                "kilometers": "1885328.923165085",
                "miles": "1171489.070184773"
            },
            "orbiting_body": "Earth"
        }
    ],
    "orbital_data": {
        "orbit_id": "8",
        "orbit_determination_date": "2017-04-06 08:54:21",
        "first_observation_date": "2011-02-25",
        "last_observation_date": "2011-03-01",
        "data_arc_in_days": 4,
        "observations_used": 36,
        "orbit_uncertainty": "7",
        "minimum_orbit_intersection": "4.42781E-5",
        "jupiter_tisserand_invariant": "3.297",
        "epoch_osculation": "2459000.5",
        "eccentricity": ".6361781954340727",
        "semi_major_axis": "2.287982882651692",
        "inclination": ".1263747461291644",
        "ascending_node_longitude": "161.9805393450497",
        "orbital_period": "1264.088799789484",
        "perihelion_distance": ".8324180611822907",
        "perihelion_argument": "55.01262995000032",
        "aphelion_distance": "3.743547704121093",
        "perihelion_time": "2459450.945583767401",
        "mean_anomaly": "231.7175484955884",
        "mean_motion": ".2847901192225995",
        "equinox": "J2000",
        "orbit_class": {
            "orbit_class_type": "APO",
            "orbit_class_description": "Near-Earth asteroid orbits which cross the Earth’s orbit similar to that of 1862 Apollo",
            "orbit_class_range": "a (semi-major axis) > 1.0 AU; q (perihelion) < 1.017 AU"
        }
    },
    "is_sentry_object": false
}